STARLINK-32093          
1 59701U 24086V   26068.37779965 -.00000340  00000+0 -28184-5 0  9993
2 59701  43.0024  61.7241 0001196 261.4600  98.6116 15.27575856104067
FLOCK 4G-6              
1 62660U 25009BD  26068.71061311  .00012261  00000+0  45910-3 0  9991
2 62660  97.3980 150.7943 0002380 348.2637  11.8546 15.27432125121307
